{
  "norad_id": 53275,
  "name": "STARLINK-4179",
  "history": [
    {
      "epoch": "2026-03-28T10:30:50.537952Z",
      "apogee_km": 540.6305631171908,
      "perigee_km": 538.8346841628936,
      "latitude_deg": 2.721119051190496e-05,
      "longitude_deg": 116.38591347591483,
      "height_km": 540.5831410623651,
      "semi_major_axis_km": 6917.869623640042,
      "eccentricity": 0.0001298,
      "inclination_deg": 53.2166,
      "raan_deg": 99.955,
      "arg_perigee_deg": 87.1153,
      "mean_anomaly_deg": 272.9988,
      "mean_motion_rev_day": 15.08843522
    },
    {
      "epoch": "2026-03-29T04:00:05.083200Z",
      "apogee_km": 540.6381291649077,
      "perigee_km": 538.8422482467195,
      "latitude_deg": -6.658225480362828e-05,
      "longitude_deg": -149.91444251541728,
      "height_km": 540.6177534465019,
      "semi_major_axis_km": 6917.877188705813,
      "eccentricity": 0.0001298,
      "inclination_deg": 53.2166,
      "raan_deg": 96.6835,
      "arg_perigee_deg": 88.8416,
      "mean_anomaly_deg": 271.2724,
      "mean_motion_rev_day": 15.08841047
    },
    {
      "epoch": "2026-03-30T00:40:05.984256Z",
      "apogee_km": 540.6565015099159,
      "perigee_km": 538.8329478872856,
      "latitude_deg": 2.165895867197068e-05,
      "longitude_deg": -104.63239096894677,
      "height_km": 540.5736706389029,
      "semi_major_axis_km": 6917.881724698601,
      "eccentricity": 0.0001318,
      "inclination_deg": 53.2167,
      "raan_deg": 92.818,
      "arg_perigee_deg": 85.8019,
      "mean_anomaly_deg": 274.3124,
      "mean_motion_rev_day": 15.08839563
    }
  ]
}